[
  {
    "OBJECT_NAME": "STARLINK-4675",
    "OBJECT_ID": "22104P",
    "EPOCH": "2025-11-11T07:07:58.018656",
    "MEAN_MOTION": 15.08847426,
    "ECCENTRICITY": 0.0001028,
    "INCLINATION": 53.2146,
    "RA_OF_ASC_NODE": 55.4585,
    "ARG_OF_PERICENTER": 84.2216,
    "MEAN_ANOMALY": 275.8893,
    "EPHEMERIS_TYPE": 0,
    "CLASSIFICATION_TYPE": "U",
    "NORAD_CAT_ID": 53601,
    "ELEMENT_SET_NO": 999,
    "REV_AT_EPOCH": 17774,
    "BSTAR": 0.00012025,
    "MEAN_MOTION_DOT": 1.627e-05,
    "MEAN_MOTION_DDOT": 0.0,
    "TLE_LINE1": "1 53601U 22104P   25315.29719929  .00001627  00000+0  12025-3 0  9996",
    "TLE_LINE2": "2 53601  53.2146  55.4585 0001028  84.2216 275.8893 15.08847426177747",
    "COMMENT": "Grouped by shell and plane from TLE"
  },
  {
    "OBJECT_NAME": "STARLINK-4648",
    "OBJECT_ID": "22104Q",
    "EPOCH": "2025-11-11T07:16:34.212000",
    "MEAN_MOTION": 15.08847411,
    "ECCENTRICITY": 8.72e-05,
    "INCLINATION": 53.2191,
    "RA_OF_ASC_NODE": 50.5148,
    "ARG_OF_PERICENTER": 80.3043,
    "MEAN_ANOMALY": 279.8048,
    "EPHEMERIS_TYPE": 0,
    "CLASSIFICATION_TYPE": "U",
    "NORAD_CAT_ID": 53602,
    "ELEMENT_SET_NO": 999,
    "REV_AT_EPOCH": 17781,
    "BSTAR": 8.8232e-05,
    "MEAN_MOTION_DOT": 1.117e-05,
    "MEAN_MOTION_DDOT": 0.0,
    "TLE_LINE1": "1 53602U 22104Q   25315.30317375  .00001117  00000+0  88232-4 0  9996",
    "TLE_LINE2": "2 53602  53.2191  50.5148 0000872  80.3043 279.8048 15.08847411177818",
    "COMMENT": "Grouped by shell and plane from TLE"
  },
  {
    "OBJECT_NAME": "STARLINK-4692",
    "OBJECT_ID": "22104R",
    "EPOCH": "2025-11-11T07:48:25.856928",
    "MEAN_MOTION": 15.08843739,
    "ECCENTRICITY": 0.0001656,
    "INCLINATION": 53.2191,
    "RA_OF_ASC_NODE": 50.6525,
    "ARG_OF_PERICENTER": 77.3142,
    "MEAN_ANOMALY": 282.8036,
    "EPHEMERIS_TYPE": 0,
    "CLASSIFICATION_TYPE": "U",
    "NORAD_CAT_ID": 53603,
    "ELEMENT_SET_NO": 999,
    "REV_AT_EPOCH": 17781,
    "BSTAR": 4.1896e-05,
    "MEAN_MOTION_DOT": 3.79e-06,
    "MEAN_MOTION_DDOT": 0.0,
    "TLE_LINE1": "1 53603U 22104R   25315.32529927  .00000379  00000+0  41896-4 0  9991",
    "TLE_LINE2": "2 53603  53.2191  50.6525 0001656  77.3142 282.8036 15.08843739177816",
    "COMMENT": "Grouped by shell and plane from TLE"
  },
  {
    "OBJECT_NAME": "STARLINK-4690",
    "OBJECT_ID": "22104S",
    "EPOCH": "2025-11-11T07:05:59.733600",
    "MEAN_MOTION": 15.08829772,
    "ECCENTRICITY": 0.0001249,
    "INCLINATION": 53.2179,
    "RA_OF_ASC_NODE": 50.4698,
    "ARG_OF_PERICENTER": 96.9763,
    "MEAN_ANOMALY": 263.1372,
    "EPHEMERIS_TYPE": 0,
    "CLASSIFICATION_TYPE": "U",
    "NORAD_CAT_ID": 53604,
    "ELEMENT_SET_NO": 999,
    "REV_AT_EPOCH": 17781,
    "BSTAR": 5.2472e-05,
    "MEAN_MOTION_DOT": 5.47e-06,
    "MEAN_MOTION_DDOT": 0.0,
    "TLE_LINE1": "1 53604U 22104S   25315.29583025  .00000547  00000+0  52472-4 0  9996",
    "TLE_LINE2": "2 53604  53.2179  50.4698 0001249  96.9763 263.1372 15.08829772177812",
    "COMMENT": "Grouped by shell and plane from TLE"
  },
  {
    "OBJECT_NAME": "STARLINK-4693",
    "OBJECT_ID": "22104T",
    "EPOCH": "2025-11-11T06:57:21.323232",
    "MEAN_MOTION": 15.08847738,
    "ECCENTRICITY": 0.0001791,
    "INCLINATION": 53.2162,
    "RA_OF_ASC_NODE": 55.4123,
    "ARG_OF_PERICENTER": 95.4754,
    "MEAN_ANOMALY": 264.6442,
    "EPHEMERIS_TYPE": 0,
    "CLASSIFICATION_TYPE": "U",
    "NORAD_CAT_ID": 53605,
    "ELEMENT_SET_NO": 999,
    "REV_AT_EPOCH": 17774,
    "BSTAR": 0.00022741,
    "MEAN_MOTION_DOT": 3.334e-05,
    "MEAN_MOTION_DDOT": 0.0,
    "TLE_LINE1": "1 53605U 22104T   25315.28983013  .00003334  00000+0  22741-3 0  9999",
    "TLE_LINE2": "2 53605  53.2162  55.4123 0001791  95.4754 264.6442 15.08847738177747",
    "COMMENT": "Grouped by shell and plane from TLE"
  },
  {
    "OBJECT_NAME": "STARLINK-4591",
    "OBJECT_ID": "22104V",
    "EPOCH": "2025-11-11T07:32:30.996960",
    "MEAN_MOTION": 15.08840403,
    "ECCENTRICITY": 0.0001541,
    "INCLINATION": 53.218,
    "RA_OF_ASC_NODE": 50.5797,
    "ARG_OF_PERICENTER": 86.6756,
    "MEAN_ANOMALY": 273.4413,
    "EPHEMERIS_TYPE": 0,
    "CLASSIFICATION_TYPE": "U",
    "NORAD_CAT_ID": 53607,
    "ELEMENT_SET_NO": 999,
    "REV_AT_EPOCH": 17781,
    "BSTAR": 7.1343e-05,
    "MEAN_MOTION_DOT": 8.48e-06,
    "MEAN_MOTION_DDOT": 0.0,
    "TLE_LINE1": "1 53607U 22104V   25315.31424765  .00000848  00000+0  71343-4 0  9999",
    "TLE_LINE2": "2 53607  53.2180  50.5797 0001541  86.6756 273.4413 15.08840403177815",
    "COMMENT": "Grouped by shell and plane from TLE"
  },
  {
    "OBJECT_NAME": "STARLINK-4660",
    "OBJECT_ID": "22104X",
    "EPOCH": "2025-11-10T16:26:17.365344",
    "MEAN_MOTION": 15.08846262,
    "ECCENTRICITY": 0.0001557,
    "INCLINATION": 53.2177,
    "RA_OF_ASC_NODE": 53.052,
    "ARG_OF_PERICENTER": 97.0631,
    "MEAN_ANOMALY": 263.0538,
    "EPHEMERIS_TYPE": 0,
    "CLASSIFICATION_TYPE": "U",
    "NORAD_CAT_ID": 53609,
    "ELEMENT_SET_NO": 999,
    "REV_AT_EPOCH": 17772,
    "BSTAR": 1.808e-05,
    "MEAN_MOTION_DOT": 0.0,
    "MEAN_MOTION_DDOT": 0.0,
    "TLE_LINE1": "1 53609U 22104X   25314.68492321  .00000000  00000+0  18080-4 0  9992",
    "TLE_LINE2": "2 53609  53.2177  53.0520 0001557  97.0631 263.0538 15.08846262177722",
    "COMMENT": "Grouped by shell and plane from TLE"
  },
  {
    "OBJECT_NAME": "STARLINK-4725",
    "OBJECT_ID": "22107A",
    "EPOCH": "2025-11-11T06:46:43.737888",
    "MEAN_MOTION": 15.08842846,
    "ECCENTRICITY": 0.0001569,
    "INCLINATION": 53.2181,
    "RA_OF_ASC_NODE": 55.2974,
    "ARG_OF_PERICENTER": 83.9517,
    "MEAN_ANOMALY": 276.1654,
    "EPHEMERIS_TYPE": 0,
    "CLASSIFICATION_TYPE": "U",
    "NORAD_CAT_ID": 53700,
    "ELEMENT_SET_NO": 999,
    "REV_AT_EPOCH": 17698,
    "BSTAR": 3.497700000000001e-05,
    "MEAN_MOTION_DOT": 2.69e-06,
    "MEAN_MOTION_DDOT": 0.0,
    "TLE_LINE1": "1 53700U 22107A   25315.28245067  .00000269  00000+0  34977-4 0  9997",
    "TLE_LINE2": "2 53700  53.2181  55.2974 0001569  83.9517 276.1654 15.08842846176981",
    "COMMENT": "Grouped by shell and plane from TLE"
  },
  {
    "OBJECT_NAME": "STARLINK-4711",
    "OBJECT_ID": "22107B",
    "EPOCH": "2025-11-11T06:41:25.336608",
    "MEAN_MOTION": 15.08865015,
    "ECCENTRICITY": 0.0001401,
    "INCLINATION": 53.2155,
    "RA_OF_ASC_NODE": 55.273,
    "ARG_OF_PERICENTER": 88.8971,
    "MEAN_ANOMALY": 271.2182,
    "EPHEMERIS_TYPE": 0,
    "CLASSIFICATION_TYPE": "U",
    "NORAD_CAT_ID": 53701,
    "ELEMENT_SET_NO": 999,
    "REV_AT_EPOCH": 17698,
    "BSTAR": 0.0,
    "MEAN_MOTION_DOT": -3.497e-05,
    "MEAN_MOTION_DDOT": 0.0,
    "TLE_LINE1": "1 53701U 22107B   25315.27876547 -.00003497  00000+0 -20161-3 0  9997",
    "TLE_LINE2": "2 53701  53.2155  55.2730 0001401  88.8971 271.2182 15.08865015176981",
    "COMMENT": "Grouped by shell and plane from TLE"
  },
  {
    "OBJECT_NAME": "STARLINK-4731",
    "OBJECT_ID": "22107D",
    "EPOCH": "2025-11-11T07:02:39.189696",
    "MEAN_MOTION": 15.08840279,
    "ECCENTRICITY": 0.0001406,
    "INCLINATION": 53.2176,
    "RA_OF_ASC_NODE": 55.3657,
    "ARG_OF_PERICENTER": 85.5215,
    "MEAN_ANOMALY": 274.5938,
    "EPHEMERIS_TYPE": 0,
    "CLASSIFICATION_TYPE": "U",
    "NORAD_CAT_ID": 53703,
    "ELEMENT_SET_NO": 999,
    "REV_AT_EPOCH": 17698,
    "BSTAR": 5.6030000000000004e-05,
    "MEAN_MOTION_DOT": 6.04e-06,
    "MEAN_MOTION_DDOT": 0.0,
    "TLE_LINE1": "1 53703U 22107D   25315.29350914  .00000604  00000+0  56030-4 0  9996",
    "TLE_LINE2": "2 53703  53.2176  55.3657 0001406  85.5215 274.5938 15.08840279176985",
    "COMMENT": "Grouped by shell and plane from TLE"
  },
  {
    "OBJECT_NAME": "STARLINK-4714",
    "OBJECT_ID": "22107E",
    "EPOCH": "2025-11-11T06:36:14.630976",
    "MEAN_MOTION": 15.08843974,
    "ECCENTRICITY": 0.000134,
    "INCLINATION": 53.221,
    "RA_OF_ASC_NODE": 55.9596,
    "ARG_OF_PERICENTER": 84.9874,
    "MEAN_ANOMALY": 275.1271,
    "EPHEMERIS_TYPE": 0,
    "CLASSIFICATION_TYPE": "U",
    "NORAD_CAT_ID": 53704,
    "ELEMENT_SET_NO": 999,
    "REV_AT_EPOCH": 17681,
    "BSTAR": 0.00010493,
    "MEAN_MOTION_DOT": 1.383e-05,
    "MEAN_MOTION_DDOT": 0.0,
    "TLE_LINE1": "1 53704U 22107E   25315.27516934  .00001383  00000+0  10493-3 0  9998",
    "TLE_LINE2": "2 53704  53.2210  55.9596 0001340  84.9874 275.1271 15.08843974176818",
    "COMMENT": "Grouped by shell and plane from TLE"
  },
  {
    "OBJECT_NAME": "STARLINK-4717",
    "OBJECT_ID": "22107F",
    "EPOCH": "2025-11-11T06:30:56.347200",
    "MEAN_MOTION": 15.08845174,
    "ECCENTRICITY": 0.0001685,
    "INCLINATION": 53.2186,
    "RA_OF_ASC_NODE": 55.9355,
    "ARG_OF_PERICENTER": 89.9339,
    "MEAN_ANOMALY": 270.1847,
    "EPHEMERIS_TYPE": 0,
    "CLASSIFICATION_TYPE": "U",
    "NORAD_CAT_ID": 53705,
    "ELEMENT_SET_NO": 999,
    "REV_AT_EPOCH": 17697,
    "BSTAR": 5.5007e-05,
    "MEAN_MOTION_DOT": 5.88e-06,
    "MEAN_MOTION_DDOT": 0.0,
    "TLE_LINE1": "1 53705U 22107F   25315.27148550  .00000588  00000+0  55007-4 0  9991",
    "TLE_LINE2": "2 53705  53.2186  55.9355 0001685  89.9339 270.1847 15.08845174176972",
    "COMMENT": "Grouped by shell and plane from TLE"
  },
  {
    "OBJECT_NAME": "STARLINK-4716",
    "OBJECT_ID": "22107G",
    "EPOCH": "2025-11-11T07:45:04.440384",
    "MEAN_MOTION": 15.08859294,
    "ECCENTRICITY": 0.0001117,
    "INCLINATION": 53.2175,
    "RA_OF_ASC_NODE": 55.5471,
    "ARG_OF_PERICENTER": 83.7164,
    "MEAN_ANOMALY": 276.3955,
    "EPHEMERIS_TYPE": 0,
    "CLASSIFICATION_TYPE": "U",
    "NORAD_CAT_ID": 53706,
    "ELEMENT_SET_NO": 999,
    "REV_AT_EPOCH": 17698,
    "BSTAR": 0.00012085999999999999,
    "MEAN_MOTION_DOT": 1.637e-05,
    "MEAN_MOTION_DDOT": 0.0,
    "TLE_LINE1": "1 53706U 22107G   25315.32296806  .00001637  00000+0  12086-3 0  9991",
    "TLE_LINE2": "2 53706  53.2175  55.5471 0001117  83.7164 276.3955 15.08859294176981",
    "COMMENT": "Grouped by shell and plane from TLE"
  }
]